{
  "norad_id": 49166,
  "name": "STARLINK-3089",
  "history": [
    {
      "epoch": "2026-04-13T05:50:34.280448Z",
      "apogee_km": 576.8480518290999,
      "perigee_km": 572.2644192866264,
      "latitude_deg": 4.6567424286123675e-06,
      "longitude_deg": -100.84816019821322,
      "height_km": 577.0263127089613,
      "semi_major_axis_km": 6952.693235557863,
      "eccentricity": 0.00032963,
      "inclination_deg": 70.0004,
      "raan_deg": 188.2317,
      "arg_perigee_deg": 268.9206,
      "mean_anomaly_deg": 91.1575,
      "mean_motion_rev_day": 14.97521823
    },
    {
      "epoch": "2026-04-14T12:18:06.567264Z",
      "apogee_km": 576.7582688523489,
      "perigee_km": 572.3458142790096,
      "latitude_deg": -4.418042795852741e-05,
      "longitude_deg": 157.8212895545651,
      "height_km": 577.088755889933,
      "semi_major_axis_km": 6952.689041565679,
      "eccentricity": 0.00031732,
      "inclination_deg": 70.0018,
      "raan_deg": 185.0366,
      "arg_perigee_deg": 267.1469,
      "mean_anomaly_deg": 92.9326,
      "mean_motion_rev_day": 14.97523178
    },
    {
      "epoch": "2026-04-15T15:33:15.387264Z",
      "apogee_km": 576.5056786218247,
      "perigee_km": 572.2576897057997,
      "latitude_deg": -5.3316601029116236e-05,
      "longitude_deg": 105.05251992790078,
      "height_km": 576.8180761051207,
      "semi_major_axis_km": 6952.5186841638115,
      "eccentricity": 0.0003055,
      "inclination_deg": 70.001,
      "raan_deg": 182.1738,
      "arg_perigee_deg": 269.7406,
      "mean_anomaly_deg": 90.3402,
      "mean_motion_rev_day": 14.97578219
    },
    {
      "epoch": "2026-04-16T13:59:52.913184Z",
      "apogee_km": 576.8276329568826,
      "perigee_km": 572.2805729755428,
      "latitude_deg": 6.545198490389567e-06,
      "longitude_deg": 125.1233530471322,
      "height_km": 576.9448511732394,
      "semi_major_axis_km": 6952.691102966212,
      "eccentricity": 0.000327,
      "inclination_deg": 70.0009,
      "raan_deg": 179.8227,
      "arg_perigee_deg": 270.9112,
      "mean_anomaly_deg": 89.1672,
      "mean_motion_rev_day": 14.97522512
    },
    {
      "epoch": "2026-04-17T12:26:29.532768Z",
      "apogee_km": 576.9120277229258,
      "perigee_km": 572.2100570908069,
      "latitude_deg": -1.261275810779934e-05,
      "longitude_deg": 145.1947438838939,
      "height_km": 577.0043136126396,
      "semi_major_axis_km": 6952.698042406866,
      "eccentricity": 0.00033814,
      "inclination_deg": 70.0003,
      "raan_deg": 177.4684,
      "arg_perigee_deg": 269.6028,
      "mean_anomaly_deg": 90.4743,
      "mean_motion_rev_day": 14.9752027
    },
    {
      "epoch": "2026-04-18T14:05:28.179744Z",
      "apogee_km": 576.9076456988669,
      "perigee_km": 572.2048439880546,
      "latitude_deg": -9.034680429175843e-06,
      "longitude_deg": 116.70519069806355,
      "height_km": 576.94538074944,
      "semi_major_axis_km": 6952.69324484346,
      "eccentricity": 0.0003382,
      "inclination_deg": 70.0005,
      "raan_deg": 174.7766,
      "arg_perigee_deg": 270.9222,
      "mean_anomaly_deg": 89.1549,
      "mean_motion_rev_day": 14.9752182
    },
    {
      "epoch": "2026-04-19T14:08:15.405216Z",
      "apogee_km": 576.9685546261271,
      "perigee_km": 572.122534892429,
      "latitude_deg": -2.4328096473364594e-05,
      "longitude_deg": 112.49835894498767,
      "height_km": 576.9856801202694,
      "semi_major_axis_km": 6952.682544759277,
      "eccentricity": 0.0003485,
      "inclination_deg": 69.9999,
      "raan_deg": 172.2541,
      "arg_perigee_deg": 269.6905,
      "mean_anomaly_deg": 90.3854,
      "mean_motion_rev_day": 14.97525277
    },
    {
      "epoch": "2026-04-20T14:11:03.372864Z",
      "apogee_km": 576.9573191516138,
      "perigee_km": 572.1570400361379,
      "latitude_deg": -2.731714298411026e-06,
      "longitude_deg": 108.2881385993598,
      "height_km": 576.9991259027978,
      "semi_major_axis_km": 6952.694179593876,
      "eccentricity": 0.00034521,
      "inclination_deg": 70.0001,
      "raan_deg": 169.7313,
      "arg_perigee_deg": 269.6438,
      "mean_anomaly_deg": 90.4325,
      "mean_motion_rev_day": 14.97521518
    },
    {
      "epoch": "2026-04-21T20:38:35.520576Z",
      "apogee_km": 576.8248783686295,
      "perigee_km": 572.2819904387898,
      "latitude_deg": 4.1427132768369495e-06,
      "longitude_deg": 6.954185328252488,
      "height_km": 576.6175398532695,
      "semi_major_axis_km": 6952.690434403709,
      "eccentricity": 0.0003267,
      "inclination_deg": 70.001,
      "raan_deg": 166.5322,
      "arg_perigee_deg": 279.1886,
      "mean_anomaly_deg": 80.8903,
      "mean_motion_rev_day": 14.97522728
    },
    {
      "epoch": "2026-04-22T12:40:27.547104Z",
      "apogee_km": 576.9701245603756,
      "perigee_km": 572.1922166335398,
      "latitude_deg": -2.110691525324551e-05,
      "longitude_deg": 124.1466226971731,
      "height_km": 576.692998911003,
      "semi_major_axis_km": 6952.718170596957,
      "eccentricity": 0.0003436,
      "inclination_deg": 69.9997,
      "raan_deg": 164.8498,
      "arg_perigee_deg": 277.5786,
      "mean_anomaly_deg": 82.4982,
      "mean_motion_rev_day": 14.97513767
    },
    {
      "epoch": "2026-04-23T09:30:44.783424Z",
      "apogee_km": 575.5816874099228,
      "perigee_km": 572.8834727758904,
      "latitude_deg": 3.228760946527212e-05,
      "longitude_deg": 168.53733094270865,
      "height_km": 576.7303340992058,
      "semi_major_axis_km": 6952.369580092906,
      "eccentricity": 0.00019405,
      "inclination_deg": 70.0051,
      "raan_deg": 162.6681,
      "arg_perigee_deg": 266.9486,
      "mean_anomaly_deg": 93.1451,
      "mean_motion_rev_day": 14.97626396
    },
    {
      "epoch": "2026-04-24T12:46:02.614944Z",
      "apogee_km": 577.0281107724068,
      "perigee_km": 572.0916959710121,
      "latitude_deg": 1.9260310475924106e-05,
      "longitude_deg": 115.73460552361465,
      "height_km": 576.9794924769354,
      "semi_major_axis_km": 6952.696903371709,
      "eccentricity": 0.000355,
      "inclination_deg": 69.9997,
      "raan_deg": 159.809,
      "arg_perigee_deg": 270.1739,
      "mean_anomaly_deg": 89.9013,
      "mean_motion_rev_day": 14.97520638
    },
    {
      "epoch": "2026-04-25T14:25:01.140096Z",
      "apogee_km": 577.0426378055572,
      "perigee_km": 572.0561711162782,
      "latitude_deg": 2.8373726387722827e-05,
      "longitude_deg": 87.24516232221205,
      "height_km": 577.0035280336244,
      "semi_major_axis_km": 6952.686404460917,
      "eccentricity": 0.0003586,
      "inclination_deg": 69.9993,
      "raan_deg": 157.1168,
      "arg_perigee_deg": 269.3788,
      "mean_anomaly_deg": 90.696,
      "mean_motion_rev_day": 14.9752403
    },
    {
      "epoch": "2026-04-26T11:15:26.291520Z",
      "apogee_km": 576.9771250690628,
      "perigee_km": 572.1078855043306,
      "latitude_deg": -3.8741393435006505e-05,
      "longitude_deg": 131.59795914089088,
      "height_km": 577.0143225235066,
      "semi_major_axis_km": 6952.679505286696,
      "eccentricity": 0.00035017,
      "inclination_deg": 69.9994,
      "raan_deg": 154.9303,
      "arg_perigee_deg": 268.946,
      "mean_anomaly_deg": 91.1297,
      "mean_motion_rev_day": 14.97526259
    }
  ]
}